OSCAR 7 (AO-7)          
1 07530U 74089B   26182.01961248 -.00000035  00000+0  70315-4 0  9991
2 07530 101.9899 195.4104 0012652 104.5118 280.0409 12.53698354362251
PHASE 3B (AO-10)        
1 14129U 83058B   26180.99416899 -.00000150  00000+0  00000+0 0  9998
2 14129  25.9232 217.4494 6006519 119.1882 313.2024  2.05871195295751
UOSAT 2 (UO-11)         
1 14781U 84021B   26181.84664606  .00001550  00000+0  16311-3 0  9999
2 14781  97.8065 147.2693 0008703 131.0720 229.1252 14.90818016259166
LUSAT (LO-19)           
1 20442U 90005G   26181.99615431  .00000135  00000+0  64715-4 0  9997
2 20442  98.8845 204.1820 0011903 160.5793 199.5847 14.34127334904376
EYESAT A (AO-27)        
1 22825U 93061C   26182.12447485  .00000123  00000+0  63747-4 0  9998
2 22825  98.6876 249.5326 0009386  63.7005 296.5141 14.30945970708996
ITAMSAT (IO-26)         
1 22826U 93061D   26182.09972819  .00000122  00000+0  62938-4 0  9999
2 22826  98.6824 249.4269 0009707  48.3625 311.8388 14.31373203709304
RADIO ROSTO (RS15)      
1 23439U 94085A   26181.95147941 -.00000027  00000+0  43208-3 0  9994
2 23439  64.8181 280.9561 0156409   1.3290 358.8021 11.27583409297456
JAS-2 (FO-29)           
1 24278U 96046B   26182.13669904 -.00000023  00000+0  10098-4 0  9992
2 24278  98.5226  29.0970 0350824  60.3393 303.2198 13.53274950475056
TECHSAT 1B (GO-32)      
1 25397U 98043D   26181.97249182  .00000062  00000+0  46975-4 0  9992
2 25397  99.0073 175.0791 0001716 137.9285 222.2024 14.24431061453299
ISS (ZARYA)             
1 25544U 98067A   26182.12120860  .00006925  00000+0  13146-3 0  9998
2 25544  51.6311 231.1150 0004254 253.5517 106.5005 15.49499881573915
PCSAT (NO-44)           
1 26931U 01043C   26182.12837074  .00000111  00000+0  72408-4 0  9997
2 26931  67.0490 208.2135 0006023 265.4481  94.5932 14.31960658292447
SAUDISAT 1C (SO-50)     
1 27607U 02058C   26182.18109266  .00001037  00000+0  13940-3 0  9999
2 27607  64.5520  85.6885 0074926 259.8630  99.4018 14.83076090266538
CUTE-1 (CO-55)          
1 27844U 03031E   26182.01649536  .00000326  00000+0  15975-3 0  9995
2 27844  98.6736 190.4014 0010358 139.6861 220.5088 14.24344253193646
CUBESAT XI-IV (CO-57)   
1 27848U 03031J   26182.01189682  .00000275  00000+0  13985-3 0  9992
2 27848  98.6768 190.0986 0009846 157.0958 203.0662 14.23628222193341
MOZHAETS 4 (RS22)       
1 27939U 03042A   26182.21054719  .00000335  00000+0  59791-4 0  9992
2 27939  98.3465   6.9653 0010217 219.8641 251.9051 14.73489522217613
CUBESAT XI-V            
1 28895U 05043F   26181.38022833  .00001474  00000+0  23930-3 0  9996
2 28895  98.2997 337.2799 0014555 159.1785 201.0018 14.72666866103697
CUTE-1.7+APD II (CO-65) 
1 32785U 08021C   26182.16924524  .00007155  00000+0  44910-3 0  9996
2 32785  97.8277 163.8799 0008315 352.8809   7.2299 15.09584995987303
SEEDS II (CO-66)        
1 32791U 08021J   26181.97379828  .00021117  00000+0  65942-3 0  9994
2 32791  97.7516 180.5337 0001255 192.0562 168.0649 15.33219425989403
YUBILEINY (RS30)        
1 32953U 08025A   26182.18212214  .00000033  00000+0  16741-3 0  9994
2 32953  82.5042 346.7328 0018511 281.5780  78.3222 12.43180302821431
KKS-1 (KISEKI)          
1 33499U 09002H   26182.15448472  .00001503  00000+0  19099-3 0  9992
2 33499  98.1184 104.8180 0006492 240.5169 119.5397 14.83159780938260
SWISSCUBE               
1 35932U 09051B   26182.12570260  .00001125  00000+0  23153-3 0  9994
2 35932  98.4025  90.2564 0006978 158.3297 201.8200 14.62508299891190
BEESAT-1                
1 35933U 09051C   26182.00550198  .00000881  00000+0  18662-3 0  9997
2 35933  98.3952  89.7404 0005167 169.6659 190.4649 14.61742388891201
ITUPSAT1                
1 35935U 09051E   26182.00849896  .00000807  00000+0  17649-3 0  9997
2 35935  98.4036  88.9208 0007044 186.0225 174.0891 14.60460825890756
XIWANG-1 (HOPE-1)       
1 36122U 09072B   26182.15172068  .00000286  00000+0  86519-3 0  9998
2 36122 100.4030 135.7615 0007156 197.4134 162.6735 13.16440551794842
O/OREOS (USA 219)       
1 37224U 10062C   26182.05861606  .00002639  00000+0  25417-3 0  9999
2 37224  71.9708  48.9174 0013142  33.5439 326.6560 14.93802741118718
JUGNU                   
1 37839U 11058B   26180.52221220  .00000404  00000+0  71335-4 0  9998
2 37839  19.9594 233.4895 0018388 212.2255 288.6400 14.13779747760775
SRMSAT                  
1 37841U 11058D   26182.09465924  .00000383  00000+0  64337-4 0  9996
2 37841  19.9733 335.2931 0011800 357.4483 159.7900 14.11578458759788
STRAND-1                
1 39090U 13009E   26182.04995426  .00000329  00000+0  12494-3 0  9998
2 39090  98.3925   1.9433 0008529 181.4171 178.6994 14.37171787699055
ZACUBE-1 (TSHEPISOSAT)  
1 39417U 13066B   26182.13801652  .00003514  00000+0  27308-3 0  9990
2 39417  97.8043 144.5460 0042754 200.5627 159.3878 15.01264192682823
GOMX-1                  
1 39430U 13066Q   26182.14481016  .00001575  00000+0  24118-3 0  9995
2 39430  97.6470  21.7265 0129503  33.1982 327.7266 14.69505946671964
